NORAD_CAT_ID,OBJECT_NAME,OBJECT_TYPE,EPOCH,MEAN_MOTION,ECCENTRICITY,INCLINATION,RA_OF_ASC_NODE,ARG_OF_PERICENTER,MEAN_ANOMALY,BSTAR,MEAN_MOTION_DOT,MEAN_MOTION_DDOT,TLE_LINE0,TLE_LINE1,TLE_LINE2,SEMIMAJOR_AXIS,PERIOD,APOGEE,PERIGEE,DECAYED
52140.0,STARLINK-3682,PAYLOAD,2024-01-02 02:51:13,15.08835041,0.0001529,53.2163,49.5582,96.8777,263.2389,0.00021096,3.071e-05,0.0,0 STARLINK-3682,1 52140U 22029BE  24002.11890952  .00003071  00000-0  21096-3 0  9992,2 52140  53.2163  49.5582 0001529  96.8777 263.2389 15.08835041100535,6917.896,95.438,540.818,538.703,0.0
52140.0,STARLINK-3682,PAYLOAD,2024-01-02 09:12:45,15.08844292,0.0001424,53.2168,48.3694,99.3972,260.7181,9.103e-05,1.161e-05,0.0,0 STARLINK-3682,1 52140U 22029BE  24002.38386495  .00001161  00000-0  91030-4 0  9997,2 52140  53.2168  48.3694 0001424  99.3972 260.7181 15.08844292100574,6917.867,95.437,540.717,538.747,0.0
52140.0,STARLINK-3682,PAYLOAD,2024-01-03 02:42:00,15.08840011,0.00016,53.2167,45.0991,88.9154,271.2021,6.7395e-05,7.85e-06,0.0,0 STARLINK-3682,1 52140U 22029BE  24003.11250843  .00000785  00000-0  67395-4 0  9994,2 52140  53.2167  45.0991 0001600  88.9154 271.2021 15.08840011100686,6917.88,95.438,540.852,538.638,0.0
52140.0,STARLINK-3682,PAYLOAD,2024-01-03 12:14:19,15.08842074,0.0001502,53.2172,43.3138,97.1342,262.9821,1.4844e-05,-5.2e-07,0.0,0 STARLINK-3682,1 52140U 22029BE  24003.50994727 -.00000052  00000-0  14844-4 0  9992,2 52140  53.2172  43.3138 0001502  97.1342 262.9821 15.08842074100741,6917.874,95.437,540.778,538.7,0.0
52140.0,STARLINK-3682,PAYLOAD,2024-01-04 12:05:05,15.08846952,0.0001538,53.2176,38.8531,90.8734,269.2434,8.814e-05,1.115e-05,0.0,0 STARLINK-3682,1 52140U 22029BE  24004.50354134  .00001115  00000-0  88140-4 0  9995,2 52140  53.2176  38.8531 0001538  90.8734 269.2434 15.08846952100890,6917.859,95.437,540.788,538.66,0.0
52140.0,STARLINK-3682,PAYLOAD,2024-01-05 11:55:53,15.08836433,0.0001528,53.2179,34.3908,91.2684,268.8483,3.4928e-05,2.68e-06,0.0,0 STARLINK-3682,1 52140U 22029BE  24005.49715099  .00000268  00000-0  34928-4 0  9998,2 52140  53.2179  34.3908 0001528  91.2684 268.8483 15.08836433101040,6917.891,95.438,540.813,538.699,0.0
52140.0,STARLINK-3682,PAYLOAD,2024-01-06 07:00:30,15.08849912,0.0001409,53.2172,30.8214,98.0544,262.0608,-2.6353e-05,-7.07e-06,0.0,0 STARLINK-3682,1 52140U 22029BE  24006.29202464 -.00000707  00000-0 -26353-4 0  9997,2 52140  53.2172  30.8214 0001409  98.0544 262.0608 15.08849912101166,6917.85,95.437,540.69,538.74,0.0
52140.0,STARLINK-3682,PAYLOAD,2024-01-06 22:54:22,15.08836275,0.0001441,53.2171,27.8491,98.271,261.8446,6.9343e-05,8.16e-06,0.0,0 STARLINK-3682,1 52140U 22029BE  24006.95443017  .00000816  00000-0  69343-4 0  9996,2 52140  53.2171  27.8491 0001441  98.2710 261.8446 15.08836275101267,6917.892,95.438,540.754,538.76,0.0
52140.0,STARLINK-3682,PAYLOAD,2024-01-07 10:02:04,15.08838179,0.0001418,53.2171,25.7671,90.9333,269.1821,6.4977e-05,7.46e-06,0.0,0 STARLINK-3682,1 52140U 22029BE  24007.41811100  .00000746  00000-0  64977-4 0  9990,2 52140  53.2171  25.7671 0001418  90.9333 269.1821 15.08838179101339,6917.886,95.438,540.732,538.77,0.0
52140.0,STARLINK-3682,PAYLOAD,2024-01-08 00:20:33,15.08825124,0.000139,53.217,23.0925,90.1438,269.9713,0.00018327,2.629e-05,0.0,0 STARLINK-3682,1 52140U 22029BE  24008.01427903  .00002629  00000-0  18327-3 0  9990,2 52140  53.2170  23.0925 0001390  90.1438 269.9713 15.08825124101422,6917.926,95.438,540.752,538.829,0.0
52140.0,STARLINK-3682,PAYLOAD,2024-01-08 09:52:51,15.08846069,0.0001459,53.217,21.3085,94.3879,265.728,7.6923e-05,9.37e-06,0.0,0 STARLINK-3682,1 52140U 22029BE  24008.41170671  .00000937  00000-0  76923-4 0  9998,2 52140  53.2170  21.3085 0001459  94.3879 265.7280 15.08846069101481,6917.862,95.437,540.736,538.718,0.0
52140.0,STARLINK-3682,PAYLOAD,2024-01-08 22:35:57,15.08835243,0.0001524,53.2169,18.9283,85.9168,274.1998,6.6381e-05,7.68e-06,0.0,0 STARLINK-3682,1 52140U 22029BE  24008.94163428  .00000768  00000-0  66381-4 0  9997,2 52140  53.2169  18.9283 0001524  85.9168 274.1998 15.08835243101562,6917.895,95.438,540.814,538.706,0.0
52140.0,STARLINK-3682,PAYLOAD,2024-01-09 09:43:38,15.08839899,0.0001568,53.2174,16.8449,105.0517,255.0648,0.00010287,1.35e-05,0.0,0 STARLINK-3682,1 52140U 22029BE  24009.40531111  .00001350  00000-0  10287-3 0  9998,2 52140  53.2174  16.8449 0001568 105.0517 255.0648 15.08839899101638,6917.881,95.438,540.83,538.661,0.0
52140.0,STARLINK-3682,PAYLOAD,2024-01-10 03:12:53,15.08842797,0.0001629,53.2175,13.5758,114.997,245.1191,6.7418e-05,7.85e-06,0.0,0 STARLINK-3682,1 52140U 22029BE  24010.13395031  .00000785  00000-0  67418-4 0  9999,2 52140  53.2175  13.5758 0001629 114.9970 245.1191 15.08842797101742,6917.872,95.437,540.864,538.61,0.0
52140.0,STARLINK-3682,PAYLOAD,2024-01-10 09:34:25,15.08850697,0.0001544,53.2169,12.3873,91.6847,268.4322,0.00011923,1.611e-05,0.0,0 STARLINK-3682,1 52140U 22029BE  24010.39890384  .00001611  00000-0  11923-3 0  9996,2 52140  53.2169  12.3873 0001544  91.6847 268.4322 15.08850697101786,6917.848,95.437,540.781,538.645,0.0
52140.0,STARLINK-3682,PAYLOAD,2024-01-11 03:03:40,15.08840219,0.0001803,53.2176,9.1102,127.6219,232.4937,7.208e-05,8.59e-06,0.0,0 STARLINK-3682,1 52140U 22029BE  24011.12754916  .00000859  00000-0  72080-4 0  9993,2 52140  53.2176   9.1102 0001803 127.6219 232.4937 15.08840219101898,6917.88,95.438,540.992,538.497,0.0
52140.0,STARLINK-3682,PAYLOAD,2024-01-11 06:14:26,15.08844079,0.0001406,53.2173,8.5178,95.9266,264.1886,0.00010247,1.343e-05,0.0,0 STARLINK-3682,1 52140U 22029BE  24011.26002728  .00001343  00000-0  10247-3 0  9990,2 52140  53.2173   8.5178 0001406  95.9266 264.1886 15.08844079101915,6917.868,95.437,540.706,538.76,0.0
52140.0,STARLINK-3682,PAYLOAD,2024-01-12 02:54:27,15.08837525,0.0001455,53.2168,4.6582,84.8326,275.2832,-1.7668e-05,-5.69e-06,0.0,0 STARLINK-3682,1 52140U 22029BE  24012.12115664 -.00000569  00000-0 -17668-4 0  9996,2 52140  53.2168   4.6582 0001455  84.8326 275.2832 15.08837525102040,6917.888,95.438,540.76,538.746,0.0
52140.0,STARLINK-3682,PAYLOAD,2024-01-12 06:05:13,15.0885788,0.0001368,53.2168,4.061,98.81,261.3047,-0.00021926,-3.777e-05,0.0,0 STARLINK-3682,1 52140U 22029BE  24012.25362739 -.00003777  00000-0 -21926-3 0  9992,2 52140  53.2168   4.0610 0001368  98.8100 261.3047 15.08857880102066,6917.826,95.436,540.637,538.744,0.0
52140.0,STARLINK-3682,PAYLOAD,2024-01-13 04:20:38,15.08836883,0.0001528,53.2192,359.9019,91.376,268.7407,2.9741e-05,1.85e-06,0.0,0 STARLINK-3682,1 52140U 22029BE  24013.18099848  .00000185  00000-0  29741-4 0  9995,2 52140  53.2192 359.9019 0001528  91.3760 268.7407 15.08836883102203,6917.89,95.438,540.812,538.698,0.0
52140.0,STARLINK-3682,PAYLOAD,2024-01-13 05:56:01,15.08838932,0.000159,53.2196,359.6044,100.3663,259.7508,5.7218e-05,6.23e-06,0.0,0 STARLINK-3682,1 52140U 22029BE  24013.24723627  .00000623  00000-0  57218-4 0  9998,2 52140  53.2196 359.6044 0001590 100.3663 259.7508 15.08838932102214,6917.884,95.438,540.849,538.649,0.0
52140.0,STARLINK-3682,PAYLOAD,2024-01-14 05:46:48,15.08836473,0.0001728,53.2191,355.1406,107.8724,252.2456,7.7773e-05,9.5e-06,0.0,0 STARLINK-3682,1 52140U 22029BE  24014.24084092  .00000950  00000-0  77773-4 0  9996,2 52140  53.2191 355.1406 0001728 107.8724 252.2456 15.08836473102369,6917.891,95.438,540.952,538.561,0.0
52140.0,STARLINK-3682,PAYLOAD,2024-01-15 07:12:58,15.08856619,0.0001644,53.2191,350.3853,103.353,256.7646,8.7117e-05,1.099e-05,0.0,0 STARLINK-3682,1 52140U 22029BE  24015.30067156  .00001099  00000-0  87117-4 0  9994,2 52140  53.2191 350.3853 0001644 103.3530 256.7646 15.08856619102527,6917.83,95.437,540.832,538.557,0.0
52140.0,STARLINK-3682,PAYLOAD,2024-01-16 07:03:46,15.08841129,0.000187,53.219,345.9216,91.4151,268.7056,8.082e-05,9.98e-06,0.0,0 STARLINK-3682,1 52140U 22029BE  24016.29428484  .00000998  00000-0  80820-4 0  9999,2 52140  53.2190 345.9216 0001870  91.4151 268.7056 15.08841129102670,6917.877,95.437,541.036,538.448,0.0
52140.0,STARLINK-3682,PAYLOAD,2024-01-17 05:19:09,15.08847081,0.0001716,53.2189,341.7627,85.1207,274.9981,5.22e-05,5.43e-06,0.0,0 STARLINK-3682,1 52140U 22029BE  24017.22164232  .00000543  00000-0  52200-4 0  9998,2 52140  53.2189 341.7627 0001716  85.1207 274.9981 15.08847081102814,6917.859,95.437,540.911,538.537,0.0
52140.0,STARLINK-3682,PAYLOAD,2024-01-18 03:34:33,15.08847631,0.0001391,53.2181,337.5942,109.0611,251.0532,5.4781e-05,5.84e-06,0.0,0 STARLINK-3682,1 52140U 22029BE  24018.14900058  .00000584  00000-0  54781-4 0  9995,2 52140  53.2181 337.5942 0001391 109.0611 251.0532 15.08847631102957,6917.857,95.437,540.684,538.76,0.0
52140.0,STARLINK-3682,PAYLOAD,2024-01-18 06:45:19,15.08849138,0.0001434,53.2188,336.9944,100.8629,259.2525,8.5493e-05,1.073e-05,0.0,0 STARLINK-3682,1 52140U 22029BE  24018.28147802  .00001073  00000-0  85493-4 0  9998,2 52140  53.2188 336.9944 0001434 100.8629 259.2525 15.08849138102973,6917.852,95.437,540.709,538.725,0.0
52140.0,STARLINK-3682,PAYLOAD,2024-01-19 06:36:06,15.08852598,0.0001639,53.2174,332.5365,113.4771,246.6393,0.00016332,2.313e-05,0.0,0 STARLINK-3682,1 52140U 22029BE  24019.27507752  .00002313  00000-0  16332-3 0  9995,2 52140  53.2174 332.5365 0001639 113.4771 246.6393 15.08852598103127,6917.842,95.437,540.841,538.573,0.0
52140.0,STARLINK-3682,PAYLOAD,2024-01-19 20:54:35,15.08841447,0.0001658,53.218,329.8571,110.5988,249.5182,3.0843e-05,2.03e-06,0.0,0 STARLINK-3682,1 52140U 22029BE  24019.87124394  .00000203  00000-0  30843-4 0  9998,2 52140  53.2180 329.8571 0001658 110.5988 249.5182 15.08841447103210,6917.876,95.437,540.888,538.594,0.0
52140.0,STARLINK-3682,PAYLOAD,2024-01-20 03:16:07,15.08847388,0.0001603,53.2175,328.6734,91.0072,269.1103,9.0504e-05,1.153e-05,0.0,0 STARLINK-3682,1 52140U 22029BE  24020.13620153  .00001153  00000-0  90504-4 0  9998,2 52140  53.2175 328.6734 0001603  91.0072 269.1103 15.08847388103254,6917.858,95.437,540.832,538.614,0.0
